NameOnCard,StreetAddress,City,State,Country,Zip,Phone,Email,Token,CardType,Expiration
Jim Jones,123 Fake Street,Los Angeles,CA,United States,90210,888-888-8888,jimbob@yahoo.com,,VISA,19-May
Rick James,123 Fake Street,London,,United Kingdom,,555-555-5555,RickJames@fake.com,xxxxxx,MC,15-May
James,34 Center St,Hamilton,OH,UK,45011,504-621-8927,donette.foller@cox.net,xxxxxx,VISA,15/May
Josephine,3 Mcauley Dr,Ashland,OH,United States,44805,810-292-9388,simona@morasca.com,xxxxxx,MC,26/May
Art,7 Eads St,Chicago,IL,United Kingdom,60632,856-636-8749,mitsue_tollner@yahoo.com,xxxxxx,VISA,27/May
Lenna,7 W Jackson Blvd,San Jose,CA,United States,95111,907-385-4412,leota@hotmail.com,xxxxxx,Mastercard,28/May
Donette,5 Boston Ave #88,Sioux Falls,SD,Royaume-Uni,57105,513-570-1893,sage_wieser@cox.net,xxxxxx,VISA,29/May
Simona,228 Runamuck Pl #2808,Baltimore,MD,UK,21224,419-503-2484,kris@gmail.com,xxxxxx,MC,30/May
Mitsue,2371 Jerrold Ave,Kulpsville,PA,United States,19443,773-573-6914,minna_amigon@yahoo.com,xxxxxx,VISA,31/May
Leota,37275 St  Rt 17m M,Middle Island,NY,United Kingdom,11953,408-752-3500,amaclead@gmail.com,xxxxxx,Mastercard,01/Jun
Sage,25 E 75th St #69,Los Angeles,CA,United States,90034,605-414-2147,kiley.caldarera@aol.com,xxxxxx,Mastercard,02/Jun
Kris,98 Connecticut Ave Nw,Chagrin Falls,OH,Royaume-Uni,44023,410-655-8723,gruta@cox.net,xxxxxx,VISA,03/Jun
Minna,56 E Morehead St,Laredo,TX,UK,78045,215-874-1229,calbares@gmail.com,xxxxxx,MC,04/Jun
Abel,73 State Road 434 E,Phoenix,AZ,United States,85013,631-335-3414,mattie@aol.com,xxxxxx,VISA,05/Jun
Kiley,69734 E Carrillo St,Mc Minnville,TN,United Kingdom,37110,310-498-5651,meaghan@hotmail.com,xxxxxx,Mastercard,06/Jun
Graciela,322 New Horizon Blvd,Milwaukee,WI,United States,53207,440-780-8425,gladys.rim@rim.org,xxxxxx,Mastercard,07/Jun
Cammy,1 State Route 27,Taylor,MI,Royaume-Uni,48180,956-537-6195,yuki_whobrey@aol.com,xxxxxx,VISA,08/Jun
Mattie,394 Manchester Blvd,Rockford,IL,UK,61109,602-277-4385,fletcher.flosi@yahoo.com,xxxxxx,MC,09/Jun
Meaghan,6 S 33rd St,Aston,PA,United States,19014,931-313-9635,bette_nicka@cox.net,xxxxxx,VISA,10/Jun
Gladys,6 Greenleaf Ave,San Jose,CA,United Kingdom,95111,414-661-9598,vinouye@aol.com,xxxxxx,Mastercard,11/Jun
Yuki,618 W Yakima Ave,Irving,TX,United States,75062,313-288-7937,willard@hotmail.com,xxxxxx,Mastercard,12/Jun
Fletcher,74 S Westgate St,Albany,NY,Royaume-Uni,12204,815-828-2147,mroyster@royster.com,xxxxxx,VISA,13/Jun
Bette,3273 State St,Middlesex,NJ,UK,8846,610-545-3615,alisha@slusarski.com,xxxxxx,MC,14/Jun
Veronika,1 Central Ave,Stevens Point,WI,United States,54481,408-540-1785,allene_iturbide@cox.net,xxxxxx,VISA,15/Jun
Willard,86 Nw 66th St #8673,Shawnee,KS,United Kingdom,66218,972-303-9197,chanel.caudy@caudy.org,xxxxxx,Mastercard,16/Jun
Maryann,2 Cedar Ave #84,Easton,MD,United States,21601,518-966-7987,ezekiel@chui.com,xxxxxx,VISA,17/Jun
Alisha,90991 Thorburn Ave,New York,NY,Royaume-Uni,10011,732-658-3154,wkusko@yahoo.com,xxxxxx,MC,18/Jun
Allene,386 9th Ave N,Conroe,TX,UK,77301,715-662-6764,bfigeroa@aol.com,xxxxxx,VISA,19/Jun
Chanel,74874 Atlantic Ave,Columbus,OH,United States,43215,913-388-2079,ammie@corrio.com,xxxxxx,Mastercard,20/Jun
Ezekiel,366 South Dr,Las Cruces,NM,United Kingdom,88011,410-669-1642,francine_vocelka@vocelka.com,xxxxxx,VISA,21/Jun
Willow,45 E Liberty St,Ridgefield Park,NJ,United States,7660,212-582-4976,ernie_stenseth@aol.com,xxxxxx,MC,19/May
Bernardo,4 Ralph Ct,Dunellen,NJ,Royaume-Uni,8812,936-336-3951,albina@glick.com,xxxxxx,VISA,15/May
Ammie,2742 Distribution Way,New York,NY,UK,10025,614-801-9788,asergi@gmail.com,xxxxxx,Mastercard,26/May
Francine,426 Wolf St,Metairie,LA,United States,70002,505-977-3911,solange@shinko.com,xxxxxx,VISA,20/Jun
Ernie,128 Bransten Rd,New York,NY,United Kingdom,10011,201-709-6245,jose@yahoo.com,xxxxxx,MC,15/May
Albina,17 Morena Blvd,Camarillo,CA,United States,93012,732-924-7882,rozella.ostrosky@ostrosky.com,xxxxxx,VISA,26/May
Alishia,775 W 17th St,San Antonio,TX,Royaume-Uni,78204,212-860-1579,valentine_gillian@gmail.com,xxxxxx,Mastercard,27/May
Solange,6980 Dorsett Rd,Abilene,KS,UK,67410,504-979-9175,kati.rulapaugh@hotmail.com,xxxxxx,VISA,28/May
Jose,2881 Lewis Rd,Prineville,OR,United States,97754,212-675-8570,youlanda@aol.com,xxxxxx,MC,29/May
Rozella,7219 Woodfield Rd,Overland Park,KS,United Kingdom,66204,805-832-6163,doldroyd@aol.com,xxxxxx,VISA,30/May
Valentine,1048 Main St,Fairbanks,AK,United States,99708,210-812-9597,roxane@hotmail.com,xxxxxx,Mastercard,31/May
Kati,678 3rd Ave,Miami,FL,Royaume-Uni,33196,785-463-7829,lperin@perin.org,xxxxxx,VISA,01/Jun
Youlanda,20 S Babcock St,Fairbanks,AK,UK,99712,541-548-8197,erick.ferencz@aol.com,xxxxxx,MC,02/Jun
Dyan,2 Lighthouse Ave,Hopkins,MN,United States,55343,913-413-4604,fsaylors@saylors.org,xxxxxx,VISA,03/Jun
Roxane,38938 Park Blvd,Boston,MA,United Kingdom,2128,907-231-4722,jina_briddick@briddick.com,xxxxxx,Mastercard,04/Jun
Lavera,5 Tomahawk Dr,Los Angeles,CA,United States,90006,305-606-7291,kanisha_waycott@yahoo.com,xxxxxx,VISA,05/Jun
Erick,762 S Main St,Madison,WI,Royaume-Uni,53711,907-741-1044,emerson.bowley@bowley.org,xxxxxx,MC,06/Jun
Fatima,209 Decker Dr,Philadelphia,PA,UK,19132,952-768-2416,bmalet@yahoo.com,xxxxxx,VISA,07/Jun
Jina,4486 W O St #1,New York,NY,United States,10003,617-399-5124,bbolognia@yahoo.com,xxxxxx,Mastercard,08/Jun
Kanisha,39 S 7th St,Tullahoma,TN,United Kingdom,37388,323-453-2780,lnestle@hotmail.com,xxxxxx,VISA,09/Jun
Emerson,98839 Hawthorne Blvd #6101,Columbia,SC,United States,29201,608-336-7444,sabra@uyetake.org,xxxxxx,MC,10/Jun
Blair,71 San Mateo Ave,Wayne,PA,Royaume-Uni,19087,215-907-9111,mmastella@mastella.com,xxxxxx,VISA,11/Jun
Brock,76 Brooks St #9,Flemington,NJ,UK,8822,212-402-9216,karl_klonowski@yahoo.com,xxxxxx,Mastercard,12/Jun
Lorrie,4545 Courthouse Rd,Westbury,NY,United States,11590,931-875-6644,twenner@aol.com,xxxxxx,VISA,13/Jun
Sabra,14288 Foster Ave #4121,Jenkintown,PA,United Kingdom,19046,803-925-5213,amber_monarrez@monarrez.org,xxxxxx,MC,14/Jun
Marjory,4 Otis St,Van Nuys,CA,United States,91405,610-814-5533,shenika@gmail.com,xxxxxx,VISA,15/Jun
Karl,65895 S 16th St,Providence,RI,Royaume-Uni,2909,908-877-6135,delmy.ahle@hotmail.com,xxxxxx,Mastercard,16/Jun
Tonette,14302 Pennsylvania Ave,Huntingdon Valley,PA,UK,19006,516-968-6051,deeanna_juhas@gmail.com,xxxxxx,VISA,17/Jun
Amber,201 Hawk Ct,Providence,RI,United States,2904,215-934-8655,bpugh@aol.com,xxxxxx,MC,18/Jun
Shenika,53075 Sw 152nd Ter #615,Monroe Township,NJ,United Kingdom,8831,818-423-4007,jamal@vanausdal.org,xxxxxx,VISA,19/Jun
Delmy,59 N Groesbeck Hwy,Austin,TX,United States,78731,401-458-2547,cecily@hollack.org,xxxxxx,Mastercard,20/Jun
Deeanna,2664 Lewis Rd,Littleton,CO,Royaume-Uni,80126,215-211-9589,carmelina_lindall@lindall.com,xxxxxx,VISA,21/Jun
